{"type": "FeatureCollection", "features": [ {"type": "Feature", "properties": {"norad_id": 67090, "name": "STARLINK-36060", "group": "last-30-days", "lat": 39.726187703890695, "lon": 22.287389728973327, "alt_km": 306.3244687304632, "timestamp": "2025-12-23T07:45:08.119735+00:00", "meta": {"OBJECT_NAME": "STARLINK-36060", "OBJECT_ID": "2025-298R", "EPOCH": "2025-12-22T22:00:03.000096", "MEAN_MOTION": 15.89458783, "ECCENTRICITY": 0.00041748, "INCLINATION": 69.9964, "RA_OF_ASC_NODE": 221.0834, "ARG_OF_PERICENTER": 270.0017, "MEAN_ANOMALY": 64.046, "EPHEMERIS_TYPE": 0, "CLASSIFICATION_TYPE": "U", "NORAD_CAT_ID": 67090, "ELEMENT_SET_NO": 999, "REV_AT_EPOCH": 255, "BSTAR": -0.0068899398, "MEAN_MOTION_DOT": -0.01995869, "MEAN_MOTION_DDOT": 0.0010590225}, "tle": {"line1": "1 67090U 25298R   25356.91670139 -.01995869  10590-2 -68899-2 0  9993", "line2": "2 67090  69.9964 221.0834 0004174 270.0017  64.0460 15.89458783  2550"}}, "geometry": {"type": "Point", "coordinates": [22.287389728973327, 39.726187703890695]}}, {"type": "Feature", "properties": {"norad_id": 67091, "name": "STARLINK-36097", "group": "last-30-days", "lat": 37.761151918040376, "lon": 23.515892797478664, "alt_km": 306.4924441675721, "timestamp": "2025-12-23T07:45:08.119748+00:00", "meta": {"OBJECT_NAME": "STARLINK-36097", "OBJECT_ID": "2025-298S", "EPOCH": "2025-12-22T22:00:03.000096", "MEAN_MOTION": 15.89461714, "ECCENTRICITY": 0.00040295, "INCLINATION": 69.9965, "RA_OF_ASC_NODE": 221.0808, "ARG_OF_PERICENTER": 269.0907, "MEAN_ANOMALY": 67.1483, "EPHEMERIS_TYPE": 0, "CLASSIFICATION_TYPE": "U", "NORAD_CAT_ID": 67091, "ELEMENT_SET_NO": 999, "REV_AT_EPOCH": 261, "BSTAR": -0.006958815, "MEAN_MOTION_DOT": -0.02015766, "MEAN_MOTION_DDOT": 0.0010789286}, "tle": {"line1": "1 67091U 25298S   25356.91670139 -.02015766  10789-2 -69588-2 0  9990", "line2": "2 67091  69.9965 221.0808 0004029 269.0907  67.1483 15.89461714  2612"}}, "geometry": {"type": "Point", "coordinates": [23.515892797478664, 37.761151918040376]}}, {"type": "Feature", "properties": {"norad_id": 67092, "name": "STARLINK-35792", "group": "last-30-days", "lat": 36.08715818263294, "lon": 24.506084613669664, "alt_km": 306.9285582295888, "timestamp": "2025-12-23T07:45:08.119758+00:00", "meta": {"OBJECT_NAME": "STARLINK-35792", "OBJECT_ID": "2025-298T", "EPOCH": "2025-12-22T22:00:03.000096", "MEAN_MOTION": 15.89449993, "ECCENTRICITY": 0.00042663, "INCLINATION": 69.9965, "RA_OF_ASC_NODE": 221.0786, "ARG_OF_PERICENTER": 272.5063, "MEAN_ANOMALY": 65.5907, "EPHEMERIS_TYPE": 0, "CLASSIFICATION_TYPE": "U", "NORAD_CAT_ID": 67092, "ELEMENT_SET_NO": 999, "REV_AT_EPOCH": 255, "BSTAR": -0.006899854, "MEAN_MOTION_DOT": -0.01997905, "MEAN_MOTION_DDOT": 0.0010609552}, "tle": {"line1": "1 67092U 25298T   25356.91670139 -.01997905  10610-2 -68999-2 0  9992", "line2": "2 67092  69.9965 221.0786 0004266 272.5063  65.5907 15.89449993  2554"}}, "geometry": {"type": "Point", "coordinates": [24.506084613669664, 36.08715818263294]}}, {"type": "Feature", "properties": {"norad_id": 67093, "name": "STARLINK-35784", "group": "last-30-days", "lat": 34.27122448015862, "lon": 25.528174873353507, "alt_km": 306.991026877532, "timestamp": "2025-12-23T07:45:08.119768+00:00", "meta": {"OBJECT_NAME": "STARLINK-35784", "OBJECT_ID": "2025-298U", "EPOCH": "2025-12-22T22:00:03.000096", "MEAN_MOTION": 15.89458544, "ECCENTRICITY": 0.00040726, "INCLINATION": 69.9964, "RA_OF_ASC_NODE": 221.0759, "ARG_OF_PERICENTER": 270.1664, "MEAN_ANOMALY": 69.9273, "EPHEMERIS_TYPE": 0, "CLASSIFICATION_TYPE": "U", "NORAD_CAT_ID": 67093, "ELEMENT_SET_NO": 999, "REV_AT_EPOCH": 261, "BSTAR": -0.0069690121, "MEAN_MOTION_DOT": -0.02018399, "MEAN_MOTION_DDOT": 0.001081539}, "tle": {"line1": "1 67093U 25298U   25356.91670139 -.02018399  10815-2 -69690-2 0  9991", "line2": "2 67093  69.9964 221.0759 0004072 270.1664  69.9273 15.89458544  2613"}}, "geometry": {"type": "Point", "coordinates": [25.528174873353507, 34.27122448015862]}}, {"type": "Feature", "properties": {"norad_id": 67094, "name": "STARLINK-36202", "group": "last-30-days", "lat": 32.2474634699145, "lon": 26.611917543381523, "alt_km": 307.68437041444304, "timestamp": "2025-12-23T07:45:08.119778+00:00", "meta": {"OBJECT_NAME": "STARLINK-36202", "OBJECT_ID": "2025-298V", "EPOCH": "2025-12-22T22:00:03.000096", "MEAN_MOTION": 15.89437338, "ECCENTRICITY": 0.00045471, "INCLINATION": 69.9962, "RA_OF_ASC_NODE": 221.0736, "ARG_OF_PERICENTER": 275.8016, "MEAN_ANOMALY": 66.528, "EPHEMERIS_TYPE": 0, "CLASSIFICATION_TYPE": "U", "NORAD_CAT_ID": 67094, "ELEMENT_SET_NO": 999, "REV_AT_EPOCH": 261, "BSTAR": -0.0068968706, "MEAN_MOTION_DOT": -0.0199602, "MEAN_MOTION_DDOT": 0.0010589475}, "tle": {"line1": "1 67094U 25298V   25356.91670139 -.01996020  10589-2 -68969-2 0  9993", "line2": "2 67094  69.9962 221.0736 0004547 275.8016  66.5280 15.89437338  2616"}}, "geometry": {"type": "Point", "coordinates": [26.611917543381523, 32.2474634699145]}}, {"type": "Feature", "properties": {"norad_id": 67095, "name": "STARLINK-36227", "group": "last-30-days", "lat": 30.33465738272217, "lon": 27.58779280560017, "alt_km": 307.49969303961734, "timestamp": "2025-12-23T07:45:08.119788+00:00", "meta": {"OBJECT_NAME": "STARLINK-36227", "OBJECT_ID": "2025-298W", "EPOCH": "2025-12-22T22:00:03.000096", "MEAN_MOTION": 15.89423577, "ECCENTRICITY": 0.00038079, "INCLINATION": 69.996, "RA_OF_ASC_NODE": 221.0708, "ARG_OF_PERICENTER": 273.1748, "MEAN_ANOMALY": 71.2447, "EPHEMERIS_TYPE": 0, "CLASSIFICATION_TYPE": "U", "NORAD_CAT_ID": 67095, "ELEMENT_SET_NO": 999, "REV_AT_EPOCH": 255, "BSTAR": -0.0068389901, "MEAN_MOTION_DOT": -0.01977587, "MEAN_MOTION_DDOT": 0.0010405678}, "tle": {"line1": "1 67095U 25298W   25356.91670139 -.01977587  10406-2 -68390-2 0  9997", "line2": "2 67095  69.9960 221.0708 0003807 273.1748  71.2447 15.89423577  2556"}}, "geometry": {"type": "Point", "coordinates": [27.58779280560017, 30.33465738272217]}}, {"type": "Feature", "properties": {"norad_id": 67096, "name": "STARLINK-36228", "group": "last-30-days", "lat": 28.696664340940085, "lon": 28.391541163870922, "alt_km": 307.6589691763129, "timestamp": "2025-12-23T07:45:08.119799+00:00", "meta": {"OBJECT_NAME": "STARLINK-36228", "OBJECT_ID": "2025-298X", "EPOCH": "2025-12-22T22:00:03.000096", "MEAN_MOTION": 15.89430571, "ECCENTRICITY": 0.00040897, "INCLINATION": 69.9963, "RA_OF_ASC_NODE": 221.0689, "ARG_OF_PERICENTER": 269.9514, "MEAN_ANOMALY": 76.2417, "EPHEMERIS_TYPE": 0, "CLASSIFICATION_TYPE": "U", "NORAD_CAT_ID": 67096, "ELEMENT_SET_NO": 999, "REV_AT_EPOCH": 255, "BSTAR": -0.0068318053, "MEAN_MOTION_DOT": -0.0197641, "MEAN_MOTION_DDOT": 0.0010394816}, "tle": {"line1": "1 67096U 25298X   25356.91670139 -.01976410  10395-2 -68318-2 0  9999", "line2": "2 67096  69.9963 221.0689 0004089 269.9514  76.2417 15.89430571  2559"}}, "geometry": {"type": "Point", "coordinates": [28.391541163870922, 28.696664340940085]}}, {"type": "Feature", "properties": {"norad_id": 67097, "name": "STARLINK-36222", "group": "last-30-days", "lat": 26.835085485025076, "lon": 29.271607667624842, "alt_km": 307.88438605269585, "timestamp": "2025-12-23T07:45:08.119811+00:00", "meta": {"OBJECT_NAME": "STARLINK-36222", "OBJECT_ID": "2025-298Y", "EPOCH": "2025-12-22T22:00:03.000096", "MEAN_MOTION": 15.89431184, "ECCENTRICITY": 0.00042102, "INCLINATION": 69.9962, "RA_OF_ASC_NODE": 221.0663, "ARG_OF_PERICENTER": 268.9272, "MEAN_ANOMALY": 79.2861, "EPHEMERIS_TYPE": 0, "CLASSIFICATION_TYPE": "U", "NORAD_CAT_ID": 67097, "ELEMENT_SET_NO": 999, "REV_AT_EPOCH": 255, "BSTAR": -0.0068451382, "MEAN_MOTION_DOT": -0.01980368, "MEAN_MOTION_DDOT": 0.0010433879}, "tle": {"line1": "1 67097U 25298Y   25356.91670139 -.01980368  10434-2 -68451-2 0  9999", "line2": "2 67097  69.9962 221.0663 0004210 268.9272  79.2861 15.89431184  2554"}}, "geometry": {"type": "Point", "coordinates": [29.271607667624842, 26.835085485025076]}}, {"type": "Feature", "properties": {"norad_id": 67098, "name": "STARLINK-36205", "group": "last-30-days", "lat": 24.781972849576825, "lon": 30.206778328137922, "alt_km": 308.0701810760638, "timestamp": "2025-12-23T07:45:08.119821+00:00", "meta": {"OBJECT_NAME": "STARLINK-36205", "OBJECT_ID": "2025-298Z", "EPOCH": "2025-12-22T22:00:03.000096", "MEAN_MOTION": 15.89447947, "ECCENTRICITY": 0.00040665, "INCLINATION": 69.9962, "RA_OF_ASC_NODE": 221.0637, "ARG_OF_PERICENTER": 267.7301, "MEAN_ANOMALY": 82.6994, "EPHEMERIS_TYPE": 0, "CLASSIFICATION_TYPE": "U", "NORAD_CAT_ID": 67098, "ELEMENT_SET_NO": 999, "REV_AT_EPOCH": 261, "BSTAR": -0.0069842041, "MEAN_MOTION_DOT": -0.02021683, "MEAN_MOTION_DDOT": 0.0010847277}, "tle": {"line1": "1 67098U 25298Z   25356.91670139 -.02021683  10847-2 -69842-2 0  9990", "line2": "2 67098  69.9962 221.0637 0004066 267.7301  82.6994 15.89447947  2611"}}, "geometry": {"type": "Point", "coordinates": [30.206778328137922, 24.781972849576825]}}, {"type": "Feature", "properties": {"norad_id": 67099, "name": "STARLINK-36193", "group": "last-30-days", "lat": 21.53093078600881, "lon": 31.621938615037195, "alt_km": 308.59928189524635, "timestamp": "2025-12-23T07:45:08.119831+00:00", "meta": {"OBJECT_NAME": "STARLINK-36193", "OBJECT_ID": "2025-298AA", "EPOCH": "2025-12-22T22:00:03.000096", "MEAN_MOTION": 15.89414708, "ECCENTRICITY": 0.0004156, "INCLINATION": 69.9962, "RA_OF_ASC_NODE": 221.0598, "ARG_OF_PERICENTER": 271.3335, "MEAN_ANOMALY": 82.6083, "EPHEMERIS_TYPE": 0, "CLASSIFICATION_TYPE": "U", "NORAD_CAT_ID": 67099, "ELEMENT_SET_NO": 999, "REV_AT_EPOCH": 255, "BSTAR": -0.0067723836, "MEAN_MOTION_DOT": -0.01957938, "MEAN_MOTION_DDOT": 0.0010212198}, "tle": {"line1": "1 67099U 25298AA  25356.91670139 -.01957938  10212-2 -67724-2 0  9994", "line2": "2 67099  69.9962 221.0598 0004156 271.3335  82.6083 15.89414708  2557"}}, "geometry": {"type": "Point", "coordinates": [31.621938615037195, 21.53093078600881]}}]}